KUIPER-00061            
1 64521U 25134X   25348.00351284  .00003700  00000+0  50970-3 0  9991
2 64521  51.9013 246.9451 0005277   0.3477 359.7488 14.80299782 27443
KUIPER-00062            
1 64522U 25134Y   25347.96172417  .00004962  00000+0  60143-3 0  9999
2 64522  51.8963 252.0935 0006951  17.7551 342.3655 14.85079800 27386
KUIPER-00063            
1 64523U 25134Z   25347.98489384  .00005869  00000+0  78826-3 0  9990
2 64523  51.9014 256.9445 0003173 340.1434  19.9404 14.80469410 27317
KUIPER-00064            
1 64524U 25134AA  25347.99955024  .00004447  00000+0  61129-3 0  9990
2 64524  51.9019 254.4202 0008334  70.3368 289.8493 14.79977654 27351
KUIPER-00065            
1 64525U 25134AB  25345.10536128  .00103188  00000+0  14259-1 0  9994
2 64525  51.9019 272.5260 0009787 348.2159  11.8572 14.77142643 26838
KUIPER-00066            
1 64526U 25134AC  25347.95248713  .00019255  00000+0  87039-3 0  9999
2 64526  51.8895 228.9484 0000749 105.6807 254.4256 15.20946672 27701
KUIPER-00069            
1 64816U 25151A   25347.61298501  .00004731  00000+0  64714-3 0  9991
2 64816  51.9017 301.2365 0006881   2.8499 357.2502 14.80067411 24018
KUIPER-00070            
1 64817U 25151B   25347.95787660  .00000889  00000+0  14579-3 0  9992
2 64817  51.9006 324.6712 0010324 330.9939  29.0449 14.79944146 23721
